HONGHU 2
1 58555U 23193C   25314.78300412  .00000782  00000+0  45024-4 0  9991
2 58555  97.2678 307.4399 0036867 325.2231  34.6592 15.14731709 68801